{
    "links": {
        "self": "http://www.neowsapp.com/rest/v1/neo/3759356?api_key=iIulBulltgU6a56xZRHN4H3l9WmuAYTsLGpBGhQ2"
    },
    "id": "3759356",
    "neo_reference_id": "3759356",
    "name": "(2016 RC34)",
    "designation": "2016 RC34",
    "nasa_jpl_url": "http://ssd.jpl.nasa.gov/sbdb.cgi?sstr=3759356",
    "absolute_magnitude_h": 26.4,
    "estimated_diameter": {
        "kilometers": {
            "estimated_diameter_min": 0.0139493823,
            "estimated_diameter_max": 0.0311917671
        },
        "meters": {
            "estimated_diameter_min": 13.9493822934,
            "estimated_diameter_max": 31.1917670523
        },
        "miles": {
            "estimated_diameter_min": 0.0086677416,
            "estimated_diameter_max": 0.0193816595
        },
        "feet": {
            "estimated_diameter_min": 45.7656914036,
            "estimated_diameter_max": 102.3351970157
        }
    },
    "is_potentially_hazardous_asteroid": false,
    "close_approach_data": [
        {
            "close_approach_date": "2016-09-11",
            "close_approach_date_full": "2016-Sep-11 10:31",
            "epoch_date_close_approach": 1473589860000,
            "relative_velocity": {
                "kilometers_per_second": "5.9710612588",
                "kilometers_per_hour": "21495.8205315196",
                "miles_per_hour": "13356.66692971"
            },
            "miss_distance": {
                "astronomical": "0.0598717988",
                "lunar": "23.2901297332",
                "kilometers": "8956693.573548556",
                "miles": "5565431.3141238328"
            },
            "orbiting_body": "Earth"
        }
    ],
    "orbital_data": {
        "orbit_id": "8",
        "orbit_determination_date": "2017-04-06 08:23:52",
        "first_observation_date": "2016-09-11",
        "last_observation_date": "2016-10-09",
        "data_arc_in_days": 28,
        "observations_used": 38,
        "orbit_uncertainty": "7",
        "minimum_orbit_intersection": ".061145",
        "jupiter_tisserand_invariant": "3.661",
        "epoch_osculation": "2459000.5",
        "eccentricity": ".4748150003429293",
        "semi_major_axis": "2.028841261196479",
        "inclination": "4.176424954754634",
        "ascending_node_longitude": "179.130887888305",
        "orbital_period": "1055.52987522669",
        "perihelion_distance": "1.065516997065724",
        "perihelion_argument": "173.2873430048877",
        "aphelion_distance": "2.992165525327235",
        "perihelion_time": "2458700.849144224426",
        "mean_anomaly": "102.1991992941357",
        "mean_motion": ".3410609291590965",
        "equinox": "J2000",
        "orbit_class": {
            "orbit_class_type": "AMO",
            "orbit_class_description": "Near-Earth asteroid orbits similar to that of 1221 Amor",
            "orbit_class_range": "1.017 AU < q (perihelion) < 1.3 AU"
        }
    },
    "is_sentry_object": false
}